*******************************************************************************
Ephemeris / WWW_USER Mon Mar 26 20:33:57 2018 Pasadena, USA      / Horizons    
*******************************************************************************
Target body name: Larissa (807)                   {source: nep088}
Center body name: Neptune Barycenter (8)          {source: nep088}
Center-site name: BODY CENTER
*******************************************************************************
Start time      : A.D. 2000-Jan-01 00:00:00.0000 TDB
Stop  time      : A.D. 2005-Jan-01 00:00:00.0000 TDB
Step-size       : 7200 minutes
*******************************************************************************
Center geodetic : 0.00000000,0.00000000,0.0000000 {E-lon(deg),Lat(deg),Alt(km)}
Center cylindric: 0.00000000,0.00000000,0.0000000 {E-lon(deg),Dxy(km),Dz(km)}
Center radii    : (undefined)                                                  
Output units    : AU-D                                                         
Output type     : GEOMETRIC cartesian states
Output format   : 2 (position and velocity)
Reference frame : ICRF/J2000.0                                                 
Coordinate systm: Ecliptic and Mean Equinox of Reference Epoch                 
*******************************************************************************
JDTDB
   X     Y     Z
   VX    VY    VZ
*******************************************************************************
$$SOE
2451754.500000000 = A.D. 2000-Jul-29 00:00:00.0000 TDB 
   7.743740582321291E-05 -4.455719557017414E-04 -1.900005000756737E-04
   5.134742667900041E-03  1.546845140009694E-03 -1.531878583642184E-03
2451759.500000000 = A.D. 2000-Aug-03 00:00:00.0000 TDB 
   1.183295554376975E-04 -4.313846863832373E-04 -2.014972523782696E-04
   5.031886513282068E-03  2.006377471684915E-03 -1.326699626724922E-03
2451764.500000000 = A.D. 2000-Aug-08 00:00:00.0000 TDB 
   1.584476183141126E-04 -4.136752279068169E-04 -2.115872955762317E-04
   4.886053005011126E-03  2.448665828517733E-03 -1.110450479931271E-03
2451769.500000000 = A.D. 2000-Aug-13 00:00:00.0000 TDB 
   1.975744050737464E-04 -3.923089955411201E-04 -2.199999250448593E-04
   4.698800170706595E-03  2.869955187497702E-03 -8.851712659350045E-04
2451774.500000000 = A.D. 2000-Aug-18 00:00:00.0000 TDB 
   2.352101977632718E-04 -3.673016436813850E-04 -2.263902830431894E-04
   4.472015054845823E-03  3.266911477523625E-03 -6.527284877862747E-04
2451779.500000000 = A.D. 2000-Aug-23 00:00:00.0000 TDB 
   2.707138827759816E-04 -3.389537196590794E-04 -2.305662473604236E-04
   4.207656629653104E-03  3.636448170304123E-03 -4.148250141951638E-04
2451784.500000000 = A.D. 2000-Aug-28 00:00:00.0000 TDB 
   3.035710740536480E-04 -3.077755776127044E-04 -2.326032316765040E-04
   3.907714377645604E-03  3.975517053101873E-03 -1.731939985208225E-04
2451789.500000000 = A.D. 2000-Sep-02 00:00:00.0000 TDB 
   3.335725127972355E-04 -2.742623992701894E-04 -2.327535275728303E-04
   3.574403012180231E-03  4.281057382250140E-03  7.019488537979542E-05
2451794.500000000 = A.D. 2000-Sep-07 00:00:00.0000 TDB 
   3.607591464557662E-04 -2.387013808649198E-04 -2.312244248547224E-04
   3.210418769140862E-03  4.550166746276371E-03  3.130989316412744E-04
2451799.500000000 = A.D. 2000-Sep-12 00:00:00.0000 TDB 
   3.851806874685351E-04 -2.011667103919170E-04 -2.280063829045496E-04
   2.819030289129704E-03  4.780374019100152E-03  5.531792151012866E-04
2451804.500000000 = A.D. 2000-Sep-17 00:00:00.0000 TDB 
   4.066665165604485E-04 -1.617044638204686E-04 -2.228915004947057E-04
   2.403910356681470E-03  4.969809585769497E-03  7.882602914111196E-04
2451809.500000000 = A.D. 2000-Sep-22 00:00:00.0000 TDB 
   4.247975220284232E-04 -1.205544227665846E-04 -2.156671323284980E-04
   1.968824333271776E-03  5.117149702875503E-03  1.016474743509017E-03
2451814.500000000 = A.D. 2000-Sep-27 00:00:00.0000 TDB 
   4.391033046104464E-04 -7.822550449538169E-05 -2.063264192571786E-04
   1.517406606448446E-03  5.221393899687511E-03  1.236188230525663E-03
2451819.500000000 = A.D. 2000-Oct-02 00:00:00.0000 TDB 
   4.493249744048733E-04 -3.536090594656179E-05 -1.951235610005602E-04
   1.053183100196361E-03  5.281668311392195E-03  1.445779676756444E-03
2451824.500000000 = A.D. 2000-Oct-07 00:00:00.0000 TDB 
   4.555300272548694E-04  7.499346186998350E-06 -1.824282798301397E-04
   5.797958710541793E-04  5.297224157160169E-03  1.643469055707256E-03
2451829.500000000 = A.D. 2000-Oct-12 00:00:00.0000 TDB 
   4.579863266484996E-04  5.006700789279739E-05 -1.684977645720739E-04
   1.012197991383055E-04  5.267638725056738E-03  1.827345973533576E-03
2451834.500000000 = A.D. 2000-Oct-17 00:00:00.0000 TDB 
   4.568987098919629E-04  9.224656234501353E-05 -1.533516489947869E-04
  -3.782328332463286E-04  5.193058147672622E-03  1.995587592530072E-03
2451839.500000000 = A.D. 2000-Oct-22 00:00:00.0000 TDB 
   4.522235783265539E-04  1.339192246161885E-04 -1.368513297410761E-04
  -8.541513074067859E-04  5.074284677394525E-03  2.146699298985217E-03
2451844.500000000 = A.D. 2000-Oct-27 00:00:00.0000 TDB 
   4.437129647916275E-04  1.747488070721799E-04 -1.189181174305105E-04
  -1.322342050823769E-03  4.912635311460110E-03  2.279592156864449E-03
2451849.500000000 = A.D. 2000-Nov-01 00:00:00.0000 TDB 
   4.311520292772140E-04  2.141704357217271E-04 -9.971126753408571E-05
  -1.778991203592641E-03  4.709682676789042E-03  2.393443436946467E-03
2451854.500000000 = A.D. 2000-Nov-06 00:00:00.0000 TDB 
   4.145957814126457E-04  2.515737710385724E-04 -7.961960642145545E-05
  -2.220569285314653E-03  4.467082650563515E-03  2.487462696768183E-03
2451859.500000000 = A.D. 2000-Nov-11 00:00:00.0000 TDB 
   3.944112406437041E-04  2.865335209347107E-04 -5.907255938933126E-05
  -2.643583096686638E-03  4.186619860301102E-03  2.560761928552098E-03
2451864.500000000 = A.D. 2000-Nov-16 00:00:00.0000 TDB 
   3.710898709904743E-04  3.189013044592419E-04 -3.832378134461570E-05
  -3.044404080333447E-03  3.870421860789970E-03  2.612442296497495E-03
2451869.500000000 = A.D. 2000-Nov-21 00:00:00.0000 TDB 
   3.449824837370189E-04  3.486860654044639E-04 -1.738287772455750E-05
  -3.419338858195455E-03  3.521152695562098E-03  2.641831903964343E-03
2451874.500000000 = A.D. 2000-Nov-26 00:00:00.0000 TDB 
   3.161718068634010E-04  3.758226916048106E-04  3.850224421481639E-06
  -3.764908842373503E-03  3.142011305720332E-03  2.648684719806041E-03
2451879.500000000 = A.D. 2000-Dec-01 00:00:00.0000 TDB 
   2.845853914736011E-04  4.000196195837101E-04  2.535909684031468E-05
  -4.078133858760125E-03  2.736517347422983E-03  2.633181176251454E-03
2451884.500000000 = A.D. 2000-Dec-06 00:00:00.0000 TDB 
   2.502551421207497E-04  4.208116064930934E-04  4.687866549875972E-05
  -4.356609772033346E-03  2.308238713573160E-03  2.595731575708377E-03
2451889.500000000 = A.D. 2000-Dec-11 00:00:00.0000 TDB 
   2.135098845406335E-04  4.377761651776276E-04  6.796619384460179E-05
  -4.598336570358900E-03  1.860660928874098E-03  2.536743169191383E-03
2451894.500000000 = A.D. 2000-Dec-16 00:00:00.0000 TDB 
   1.749418860577536E-04  4.507383400146594E-04  8.821867826280862E-05
  -4.801455159241881E-03  1.397281292255577E-03  2.456540203895587E-03
2451899.500000000 = A.D. 2000-Dec-21 00:00:00.0000 TDB 
   1.351726956383982E-04  4.597978141352942E-04  1.074603769889998E-04
  -4.964123643382417E-03  9.218257182595364E-04  2.355500053351819E-03
2451904.500000000 = A.D. 2000-Dec-26 00:00:00.0000 TDB 
   9.460734477792188E-05  4.651572187330137E-04  1.257486091202755E-04
  -5.084647623772269E-03  4.383850609602766E-04  2.234290897956668E-03
2451909.500000000 = A.D. 2000-Dec-31 00:00:00.0000 TDB 
   5.337530399335939E-05  4.668925352501375E-04  1.431942348863427E-04
  -5.161769544280750E-03 -4.866743186958882E-05  2.094012448339435E-03
2451914.500000000 = A.D. 2001-Jan-05 00:00:00.0000 TDB 
   1.150410880300429E-05  4.648535736238725E-04  1.597444474438695E-04
  -5.194889829339293E-03 -5.349379457815842E-04  1.936119027990776E-03
2451919.500000000 = A.D. 2001-Jan-10 00:00:00.0000 TDB 
  -3.081846654298820E-05  4.587760971272124E-04  1.751062518246218E-04
  -5.184045771301086E-03 -1.016267560364718E-03  1.762180941706077E-03
2451924.500000000 = A.D. 2001-Jan-15 00:00:00.0000 TDB 
  -7.311012661779472E-05  4.485141507262555E-04  1.888741125243825E-04
  -5.129669362720315E-03 -1.488801077612029E-03  1.573670955804877E-03
2451929.500000000 = A.D. 2001-Jan-20 00:00:00.0000 TDB 
  -1.146997307546611E-04  4.342027476995623E-04  2.007585065084510E-04
  -5.032323246685770E-03 -1.948841179644377E-03  1.371941316968934E-03
2451934.500000000 = A.D. 2001-Jan-25 00:00:00.0000 TDB 
  -1.549890455805037E-04  4.162177191546797E-04  2.107296602488699E-04
  -4.892629267346672E-03 -2.392634958812839E-03  1.158400143721157E-03
2451939.500000000 = A.D. 2001-Jan-30 00:00:00.0000 TDB 
  -1.936593305478584E-04  3.949649194674323E-04  2.189599607961441E-04
  -4.711444195665036E-03 -2.816294331242513E-03  9.347325197013081E-04
2451944.500000000 = A.D. 2001-Feb-04 00:00:00.0000 TDB 
  -2.306565061198360E-04  3.706700129774828E-04  2.256127087757426E-04
  -4.490133165119317E-03 -3.215941874229367E-03  7.029744229270832E-04
2451949.500000000 = A.D. 2001-Feb-09 00:00:00.0000 TDB 
  -2.659693160075908E-04  3.433394431917624E-04  2.306502450454942E-04
  -4.230709004599564E-03 -3.587988592750697E-03  4.653669677345945E-04
2451954.500000000 = A.D. 2001-Feb-14 00:00:00.0000 TDB 
  -2.993838314897522E-04  3.129232220181835E-04  2.338185831213273E-04
  -3.935712839267442E-03 -3.929341125944919E-03  2.240972956055231E-04
2451959.500000000 = A.D. 2001-Feb-19 00:00:00.0000 TDB 
  -3.304168528909100E-04  2.795452141017350E-04  2.348214979752307E-04
  -3.607920264248435E-03 -4.237392090066857E-03 -1.887550732438984E-05
